OBJECT_NAME,OBJECT_ID,EPOCH,MEAN_MOTION,ECCENTRICITY,INCLINATION,RA_OF_ASC_NODE,ARG_OF_PERICENTER,MEAN_ANOMALY,EPHEMERIS_TYPE,CLASSIFICATION_TYPE,NORAD_CAT_ID,ELEMENT_SET_NO,REV_AT_EPOCH,BSTAR,MEAN_MOTION_DOT,MEAN_MOTION_DDOT
NOAA 15,1998-030A,2024-07-08T03:17:32.249184,14.26621635,.0009085,98.5674,216.8257,262.4140,97.6009,0,U,25338,999,36042,.14224E-3,.3E-5,0
NOAA 18,2005-018A,2024-07-08T03:56:54.877056,14.13247676,.0014165,98.8743,266.9554,8.5629,351.5782,0,U,28654,999,98622,.1766E-3,.287E-5,0
NOAA 19,2009-005A,2024-07-08T01:09:14.511168,14.13042357,.0013084,99.0460,246.0670,230.4905,129.5111,0,U,33591,999,79457,.16638E-3,.265E-5,0
METOP-B,2012-049A,2024-07-07T20:49:40.258848,14.21449700,.0001377,98.6269,246.6258,83.1031,277.0303,0,U,38771,999,61248,.11384E-3,.206E-5,0
SARAL,2013-009A,2024-07-07T19:49:31.262592,14.32439941,.0001381,98.5512,14.6543,185.8380,174.2788,0,U,39086,999,59403,.8439E-4,.185E-5,0
METOP-C,2018-087A,2024-07-08T04:30:05.330880,14.21486052,.0002642,98.7225,249.2180,53.2515,306.8904,0,U,43689,999,29410,.10697E-3,.19E-5,0
ANGELS,2019-092D,2024-07-07T10:59:05.838144,15.27420947,.0008406,97.4736,18.0485,243.4363,116.6014,0,U,44876,999,25245,.24488E-3,.6503E-4,0
OTB-3-GAZELLE,2022-127A,2024-07-07T14:07:05.423808,14.42128217,.0013597,98.3432,183.4390,164.5215,195.6394,0,U,54023,999,9206,.92627E-4,.262E-5,0
EOS-6 (OCEANSAT-3),2022-158A,2024-07-08T00:55:40.709568,14.46974950,.0001873,98.3539,286.7876,107.0596,253.0801,0,U,54361,999,8528,.16115E-3,.542E-5,0
